[
    {
        "Altitude(m)": 610405.3369070297,
        "Argument of Periapsis(deg)": 0.0,
        "Eccentricity": 0.0,
        "Inclination(deg)": 60.0,
        "Latitude(deg)": 52.11130985395012,
        "Longitude(deg)": 47.47732504026397,
        "Mean Anomaly(deg)": 114.5455,
        "RAAN(deg)": 15.0,
        "Satellite Name": "Test1 73",
        "Satellite Number": 73,
        "Semi-Major Axis(m)": 6980739.136638005,
        "Time(s)": 0
    },
    {
        "Altitude(m)": 610321.9102820308,
        "Argument of Periapsis(deg)": 0.00010418945913296404,
        "Eccentricity": 0.0,
        "Inclination(deg)": 60.0,
        "Latitude(deg)": 51.746025804194,
        "Longitude(deg)": 48.246220735825375,
        "Mean Anomaly(deg)": 115.16560614546184,
        "RAAN(deg)": 14.999579950860259,
        "Satellite Name": "Test1 73",
        "Satellite Number": 73,
        "Semi-Major Axis(m)": 6980739.136638005,
        "Time(s)": 10
    }
]